satname,norad_id,inclination_deg,eccentricity,mean_motion_rev_per_day,perigee_km,apogee_km,l1,l2
STARLINK-1522,46027,53.053,0.0001517,15.06392233,546.184783789472,548.2859417643385,1 46027U 20055A   26037.84442662  .00000133  00000+0  27836-4 0  9991,2 46027  53.0530 265.0840 0001517  99.9791 260.1369 15.06392233304233
STARLINK-1523,46028,53.0558,0.0001399,15.06391496,546.2687616865287,548.2064815056501,1 46028U 20055B   26037.85917604 -.00000315  00000+0 -22241-5 0  9996,2 46028  53.0558 265.0232 0001399  92.4763 267.6386 15.06391496304257
STARLINK-1526,46029,53.0534,0.000164,15.06377926,546.1434441363508,548.4149806540172,1 46029U 20055C   26037.85180351  .00001230  00000+0  10149-3 0  9995,2 46029  53.0534 265.0542 0001640  85.6692 274.4484 15.06377926304246
STARLINK-1555,46032,53.0535,0.0001458,15.06402376,546.1945610920366,548.2139906080747,1 46032U 20055F   26037.83706056  .00006467  00000+0  45259-3 0  9990,2 46032  53.0535 265.1172 0001458  98.6224 261.4930 15.06402376304243
STARLINK-1556,46033,53.0524,0.0001397,15.0639601,546.2563138386968,548.1912596425118,1 46033U 20055G   26037.81862875  .00002565  00000+0  19102-3 0  9994,2 46033  53.0524 265.2026 0001397  91.3469 268.7679 15.06396010304218
STARLINK-1557,46034,53.0544,0.0001497,15.06393737,546.1940256450907,548.2674807503981,1 46034U 20055H   26037.82232861  .00004144  00000+0  29695-3 0  9995,2 46034  53.0544 265.1821 0001497  78.0820 282.0337 15.06393737304210
STARLINK-1558,46035,53.0528,0.0001518,15.06376821,546.2313204506672,548.333877840968,1 46035U 20055J   26037.82969911 -.00005891  00000+0 -37718-3 0  9996,2 46035  53.0528 265.1539 0001518  97.8366 262.2796 15.06376821304244
STARLINK-1560,46036,53.0543,0.0001135,15.06394957,546.440985234477,548.0130428656666,1 46036U 20055K   26037.81493936  .00002411  00000+0  18070-3 0  9998,2 46036  53.0543 265.2197 0001135  92.9642 267.1477 15.06394957304241
STARLINK-1567,46038,53.0524,0.0001212,15.06385331,546.4171589811649,548.0958743696074,1 46038U 20055M   26037.82601610  .00008748  00000+0  60569-3 0  9990,2 46038  53.0524 265.1843 0001212  62.3300 297.7812 15.06385331304234
STARLINK-1569,46039,53.0533,0.0001814,15.06404712,545.9408607658634,548.4533719832843,1 46039U 20055N   26037.83337108  .00005497  00000+0  38761-3 0  9997,2 46039  53.0533 265.1374 0001814  87.7453 272.3744 15.06404712304230
STARLINK-1582,46043,53.0554,0.0001384,15.06385403,546.2978215700177,548.2147704343506,1 46043U 20055S   26037.84074132  .00006436  00000+0  45076-3 0  9999,2 46043  53.0554 265.1009 0001384 114.6212 245.4922 15.06385403304232
STARLINK-1591,46045,53.0544,0.000143,15.06388995,546.2549572165817,548.2356165506308,1 46045U 20055U   26037.80020994 -.00000921  00000+0 -42923-4 0  9998,2 46045  53.0544 265.2787 0001430  99.1334 260.9817 15.06388995304213
STARLINK-1524,46047,53.0552,0.0001445,15.06394439,546.2278863253396,548.2293169842178,1 46047U 20055W   26037.81954354 -.00000380  00000+0 -66131-5 0  9994,2 46047  53.0552 255.1975 0001445  94.0911 266.0243 15.06394439304379
STARLINK-1527,46048,53.0551,0.0001448,15.06391891,546.2336168969478,548.2392050367625,1 46048U 20055X   26037.81586493  .00000479  00000+0  51050-4 0  9990,2 46048  53.0551 255.2127 0001448  94.7042 265.4112 15.06391891304359
STARLINK-1540,46051,53.0547,0.0001267,15.06387504,546.3724101285352,548.1273031580095,1 46051U 20055AA  26037.84903762  .00001375  00000+0  11123-3 0  9991,2 46051  53.0547 255.0661 0001267  88.3354 271.7780 15.06387504304394
STARLINK-1541,46052,53.0546,0.0001342,15.06421029,546.2177347044944,548.0764809590364,1 46052U 20055AB  26037.83429322  .00013686  00000+0  93539-3 0  9995,2 46052  53.0546 255.1345 0001342  83.2649 276.8492 15.06421029304352
STARLINK-1543,46053,53.0548,0.0001591,15.06393053,546.1310232314836,548.3346759176184,1 46053U 20055AC  26037.83798140  .00001873  00000+0  14461-3 0  9995,2 46053  53.0548 255.1187 0001591  92.5725 267.5447 15.06393053304388
STARLINK-1548,46054,53.054,0.0001158,15.06387224,546.4487549175674,548.0526747123185,1 46054U 20055AD  26037.84536001  .00002121  00000+0  16129-3 0  9993,2 46054  53.0540 255.0820 0001158  84.7523 275.3598 15.06387224304389
STARLINK-1554,46055,53.0541,0.0001392,15.06393207,546.2683661657838,548.1963890005036,1 46055U 20055AE  26037.83060184 -.00000017  00000+0  17748-4 0  9999,2 46055  53.0541 255.1502 0001392  96.6549 263.4599 15.06393207304386
STARLINK-1564,46058,53.0547,0.0001348,15.0637398,546.357758902891,548.2248543743608,1 46058U 20055AH  26037.84171934  .00002438  00000+0  18261-3 0  9997,2 46058  53.0547 255.5630 0001348 113.2654 246.8477 15.06373980304370
STARLINK-1570,46059,53.0546,0.0001597,15.06384563,546.1528848034532,548.3648562444987,1 46059U 20055AJ  26037.80480747 -.00000113  00000+0  11288-4 0  9991,2 46059  53.0546 255.2654 0001597  90.4432 269.6740 15.06384563304330
STARLINK-1572,46060,53.0528,0.0001337,15.06400465,546.284213868963,548.1360516922678,1 46060U 20055AK  26037.80111637  .00002085  00000+0  15884-3 0  9996,2 46060  53.0528 255.2803 0001337  98.8934 261.2207 15.06400465304346
STARLINK-1573,46061,53.0529,0.0001395,15.06400189,546.2448926375337,548.1770647235853,1 46061U 20055AL  26037.79742008  .00000293  00000+0  38563-4 0  9996,2 46061  53.0529 255.3295 0001395  91.9345 268.1804 15.06400189304373
STARLINK-1577,46063,53.0547,0.0001442,15.06394724,546.2290905717882,548.2263657593912,1 46063U 20055AN  26037.82322924  .00001680  00000+0  13167-3 0  9996,2 46063  53.0547 255.1800 0001442  97.3672 262.7480 15.06394724304378
STARLINK-1583,46064,53.0539,0.0001317,15.06391619,546.3251728272671,548.149316403299,1 46064U 20055AP  26037.85641457  .00001727  00000+0  13480-3 0  9995,2 46064  53.0539 255.0332 0001317  94.5417 265.5723 15.06391619304388
STARLINK-1525,46066,53.0557,0.0001278,15.06395769,546.3394641713094,548.1095865771949,1 46066U 20055AR  26037.85456142  .00001267  00000+0  10396-3 0  9994,2 46066  53.0557 235.0394 0001278  82.6424 277.4710 15.06395769304656
STARLINK-1536,46070,53.0555,0.0001385,15.06390306,546.2821039211849,548.200433701646,1 46070U 20055AV  26037.76609596  .00002370  00000+0  17797-3 0  9990,2 46070  53.0555 235.4385 0001385  92.0924 268.0223 15.06390306304659
STARLINK-1542,46073,53.0557,0.0001301,15.06402841,546.3018639815646,548.1038374107166,1 46073U 20055AY  26037.75873591  .00000178  00000+0  30837-4 0  9995,2 46073  53.0557 235.4716 0001301  92.9988 267.1150 15.06402841304645
